STARLINK-2261
1 18004C 21024AD  21326.17621561  .00767870  00000-0  46989-2 0  3265
2 18004  53.0528  77.5463 0006412 269.6704 324.2378 15.75850809    18
